{"type": "FeatureCollection", "features": [ {"type": "Feature", "properties": {"norad_id": 35744, "name": "IRIDIUM 33 DEB", "group": "iridium-33-debris", "lat": -28.82676440909378, "lon": 147.72283410532037, "alt_km": 650.1897806124243, "timestamp": "2025-12-12T03:50:52.803564+00:00", "meta": {"OBJECT_NAME": "IRIDIUM 33 DEB", "OBJECT_ID": "1997-051RX", "EPOCH": "2025-12-11T05:40:38.680320", "MEAN_MOTION": 14.70964353, "ECCENTRICITY": 0.00200948, "INCLINATION": 86.3293, "RA_OF_ASC_NODE": 326.1153, "ARG_OF_PERICENTER": 197.6231, "MEAN_ANOMALY": 162.4291, "EPHEMERIS_TYPE": 0, "CLASSIFICATION_TYPE": "U", "NORAD_CAT_ID": 35744, "ELEMENT_SET_NO": 999, "REV_AT_EPOCH": 87309, "BSTAR": 0.0023208663, "MEAN_MOTION_DOT": 0.00014305, "MEAN_MOTION_DDOT": 0}, "tle": {"line1": "1 35744U 97051RX  25345.23655880  .00014305  00000+0  23209-2 0  9991", "line2": "2 35744  86.3293 326.1153 0020094 197.6231 162.4291 14.70964353873095"}}, "geometry": {"type": "Point", "coordinates": [147.72283410532037, -28.82676440909378]}}, {"type": "Feature", "properties": {"norad_id": 35797, "name": "IRIDIUM 33 DEB", "group": "iridium-33-debris", "lat": -85.72349948518685, "lon": -88.72641528855446, "alt_km": 633.1249269838227, "timestamp": "2025-12-12T03:50:52.803574+00:00", "meta": {"OBJECT_NAME": "IRIDIUM 33 DEB", "OBJECT_ID": "1997-051SF", "EPOCH": "2025-12-11T05:34:05.709792", "MEAN_MOTION": 14.82689252, "ECCENTRICITY": 0.00131617, "INCLINATION": 86.3363, "RA_OF_ASC_NODE": 330.6656, "ARG_OF_PERICENTER": 152.8945, "MEAN_ANOMALY": 207.2968, "EPHEMERIS_TYPE": 0, "CLASSIFICATION_TYPE": "U", "NORAD_CAT_ID": 35797, "ELEMENT_SET_NO": 999, "REV_AT_EPOCH": 87318, "BSTAR": 0.0027879355, "MEAN_MOTION_DOT": 0.00022588, "MEAN_MOTION_DDOT": 0}, "tle": {"line1": "1 35797U 97051SF  25345.23201053  .00022588  00000+0  27879-2 0  9997", "line2": "2 35797  86.3363 330.6656 0013161 152.8945 207.2968 14.82689252873185"}}, "geometry": {"type": "Point", "coordinates": [-88.72641528855446, -85.72349948518685]}}, {"type": "Feature", "properties": {"norad_id": 35806, "name": "IRIDIUM 33 DEB", "group": "iridium-33-debris", "lat": -86.22588483890297, "lon": -54.87224570687566, "alt_km": 720.3044598537062, "timestamp": "2025-12-12T03:50:52.803586+00:00", "meta": {"OBJECT_NAME": "IRIDIUM 33 DEB", "OBJECT_ID": "1997-051SQ", "EPOCH": "2025-12-10T20:56:47.284800", "MEAN_MOTION": 14.5731398, "ECCENTRICITY": 0.0016091, "INCLINATION": 86.344, "RA_OF_ASC_NODE": 21.4504, "ARG_OF_PERICENTER": 81.1516, "MEAN_ANOMALY": 279.1514, "EPHEMERIS_TYPE": 0, "CLASSIFICATION_TYPE": "U", "NORAD_CAT_ID": 35806, "ELEMENT_SET_NO": 999, "REV_AT_EPOCH": 86297, "BSTAR": 0.0016785, "MEAN_MOTION_DOT": 7.632e-05, "MEAN_MOTION_DDOT": 0}, "tle": {"line1": "1 35806U 97051SQ  25344.87276950  .00007632  00000+0  16785-2 0  9992", "line2": "2 35806  86.3440  21.4504 0016091  81.1516 279.1514 14.57313980862976"}}, "geometry": {"type": "Point", "coordinates": [-54.87224570687566, -86.22588483890297]}}, {"type": "Feature", "properties": {"norad_id": 35809, "name": "IRIDIUM 33 DEB", "group": "iridium-33-debris", "lat": -57.07781909264377, "lon": 161.30359450690548, "alt_km": 643.4297911321046, "timestamp": "2025-12-12T03:50:52.803603+00:00", "meta": {"OBJECT_NAME": "IRIDIUM 33 DEB", "OBJECT_ID": "1997-051ST", "EPOCH": "2025-12-10T16:35:56.421600", "MEAN_MOTION": 14.75629145, "ECCENTRICITY": 0.00097103, "INCLINATION": 86.329, "RA_OF_ASC_NODE": 336.2813, "ARG_OF_PERICENTER": 251.0565, "MEAN_ANOMALY": 108.9602, "EPHEMERIS_TYPE": 0, "CLASSIFICATION_TYPE": "U", "NORAD_CAT_ID": 35809, "ELEMENT_SET_NO": 999, "REV_AT_EPOCH": 86777, "BSTAR": 0.0026432017, "MEAN_MOTION_DOT": 0.00018102, "MEAN_MOTION_DDOT": 0}, "tle": {"line1": "1 35809U 97051ST  25344.69162525  .00018102  00000+0  26432-2 0  9991", "line2": "2 35809  86.3290 336.2813 0009710 251.0565 108.9602 14.75629145867777"}}, "geometry": {"type": "Point", "coordinates": [161.30359450690548, -57.07781909264377]}}, {"type": "Feature", "properties": {"norad_id": 35846, "name": "IRIDIUM 33 DEB", "group": "iridium-33-debris", "lat": 84.61197484445259, "lon": 101.32317506223987, "alt_km": 739.6527140801172, "timestamp": "2025-12-12T03:50:52.803614+00:00", "meta": {"OBJECT_NAME": "IRIDIUM 33 DEB", "OBJECT_ID": "1997-051SW", "EPOCH": "2025-12-10T23:09:37.938816", "MEAN_MOTION": 14.43148066, "ECCENTRICITY": 0.0018649, "INCLINATION": 86.3748, "RA_OF_ASC_NODE": 59.598, "ARG_OF_PERICENTER": 175.7823, "MEAN_ANOMALY": 184.3539, "EPHEMERIS_TYPE": 0, "CLASSIFICATION_TYPE": "U", "NORAD_CAT_ID": 35846, "ELEMENT_SET_NO": 999, "REV_AT_EPOCH": 71303, "BSTAR": 0.00091839, "MEAN_MOTION_DOT": 3.109e-05, "MEAN_MOTION_DDOT": 0}, "tle": {"line1": "1 35846U 97051SW  25344.96502244  .00003109  00000+0  91839-3 0  9993", "line2": "2 35846  86.3748  59.5980 0018649 175.7823 184.3539 14.43148066713035"}}, "geometry": {"type": "Point", "coordinates": [101.32317506223987, 84.61197484445259]}}, {"type": "Feature", "properties": {"norad_id": 35848, "name": "IRIDIUM 33 DEB", "group": "iridium-33-debris", "lat": -3.7377457290914333, "lon": -163.3781816998013, "alt_km": 632.0977529910733, "timestamp": "2025-12-12T03:50:52.803624+00:00", "meta": {"OBJECT_NAME": "IRIDIUM 33 DEB", "OBJECT_ID": "1997-051SY", "EPOCH": "2025-12-10T20:09:33.946272", "MEAN_MOTION": 14.78567105, "ECCENTRICITY": 0.0007483, "INCLINATION": 86.391, "RA_OF_ASC_NODE": 16.979, "ARG_OF_PERICENTER": 196.6944, "MEAN_ANOMALY": 163.4031, "EPHEMERIS_TYPE": 0, "CLASSIFICATION_TYPE": "U", "NORAD_CAT_ID": 35848, "ELEMENT_SET_NO": 999, "REV_AT_EPOCH": 66662, "BSTAR": 0.0024266, "MEAN_MOTION_DOT": 0.00017798, "MEAN_MOTION_DDOT": 0}, "tle": {"line1": "1 35848U 97051SY  25344.83997623  .00017798  00000+0  24266-2 0  9998", "line2": "2 35848  86.3910  16.9790 0007483 196.6944 163.4031 14.78567105666628"}}, "geometry": {"type": "Point", "coordinates": [-163.3781816998013, -3.7377457290914333]}}, {"type": "Feature", "properties": {"norad_id": 35850, "name": "IRIDIUM 33 DEB", "group": "iridium-33-debris", "lat": 30.895788891435647, "lon": 162.3199377038658, "alt_km": 626.9745474256379, "timestamp": "2025-12-12T03:50:52.803634+00:00", "meta": {"OBJECT_NAME": "IRIDIUM 33 DEB", "OBJECT_ID": "1997-051TA", "EPOCH": "2025-12-06T07:30:15.621984", "MEAN_MOTION": 14.78601393, "ECCENTRICITY": 0.00083892, "INCLINATION": 86.3487, "RA_OF_ASC_NODE": 347.1693, "ARG_OF_PERICENTER": 210.267, "MEAN_ANOMALY": 149.8067, "EPHEMERIS_TYPE": 0, "CLASSIFICATION_TYPE": "U", "NORAD_CAT_ID": 35850, "ELEMENT_SET_NO": 999, "REV_AT_EPOCH": 71262, "BSTAR": 0.0028291764, "MEAN_MOTION_DOT": 0.00020775, "MEAN_MOTION_DDOT": 0}, "tle": {"line1": "1 35850U 97051TA  25340.31268081  .00020775  00000+0  28292-2 0  9991", "line2": "2 35850  86.3487 347.1693 0008389 210.2670 149.8067 14.78601393712623"}}, "geometry": {"type": "Point", "coordinates": [162.3199377038658, 30.895788891435647]}}, {"type": "Feature", "properties": {"norad_id": 35915, "name": "IRIDIUM 33 DEB", "group": "iridium-33-debris", "lat": 83.41454652658109, "lon": 16.864716197173863, "alt_km": 621.5216736228622, "timestamp": "2025-12-12T03:50:52.803647+00:00", "meta": {"OBJECT_NAME": "IRIDIUM 33 DEB", "OBJECT_ID": "1997-051TY", "EPOCH": "2025-12-07T18:02:16.498176", "MEAN_MOTION": 14.80542095, "ECCENTRICITY": 0.00101746, "INCLINATION": 86.3429, "RA_OF_ASC_NODE": 345.2367, "ARG_OF_PERICENTER": 205.9072, "MEAN_ANOMALY": 154.1641, "EPHEMERIS_TYPE": 0, "CLASSIFICATION_TYPE": "U", "NORAD_CAT_ID": 35915, "ELEMENT_SET_NO": 999, "REV_AT_EPOCH": 8012, "BSTAR": 0.0030076362, "MEAN_MOTION_DOT": 0.00023136, "MEAN_MOTION_DDOT": 0}, "tle": {"line1": "1 35915U 97051TY  25341.75157984  .00023136  00000+0  30076-2 0  9998", "line2": "2 35915  86.3429 345.2367 0010174 205.9072 154.1641 14.80542095 80126"}}, "geometry": {"type": "Point", "coordinates": [16.864716197173863, 83.41454652658109]}}, {"type": "Feature", "properties": {"norad_id": 35918, "name": "IRIDIUM 33 DEB", "group": "iridium-33-debris", "lat": -59.10975114094887, "lon": 70.02480021268777, "alt_km": 741.1954786353608, "timestamp": "2025-12-12T03:50:52.803658+00:00", "meta": {"OBJECT_NAME": "IRIDIUM 33 DEB", "OBJECT_ID": "1997-051UB", "EPOCH": "2025-12-11T00:33:20.254176", "MEAN_MOTION": 14.51217376, "ECCENTRICITY": 0.00274283, "INCLINATION": 86.4008, "RA_OF_ASC_NODE": 76.552, "ARG_OF_PERICENTER": 175.0767, "MEAN_ANOMALY": 308.1534, "EPHEMERIS_TYPE": 0, "CLASSIFICATION_TYPE": "U", "NORAD_CAT_ID": 35918, "ELEMENT_SET_NO": 999, "REV_AT_EPOCH": 85182, "BSTAR": 0.001804054, "MEAN_MOTION_DOT": 7.222e-05, "MEAN_MOTION_DDOT": 0}, "tle": {"line1": "1 35918U 97051UB  25345.02315109  .00007222  00000+0  18041-2 0  9996", "line2": "2 35918  86.4008  76.5520 0027428 175.0767 308.1534 14.51217376851820"}}, "geometry": {"type": "Point", "coordinates": [70.02480021268777, -59.10975114094887]}}, {"type": "Feature", "properties": {"norad_id": 35929, "name": "IRIDIUM 33 DEB", "group": "iridium-33-debris", "lat": -55.20132543808632, "lon": -52.38852310593783, "alt_km": 567.5151951062207, "timestamp": "2025-12-12T03:50:52.803668+00:00", "meta": {"OBJECT_NAME": "IRIDIUM 33 DEB", "OBJECT_ID": "1997-051UN", "EPOCH": "2025-12-10T04:07:57.675648", "MEAN_MOTION": 15.02123789, "ECCENTRICITY": 0.00184888, "INCLINATION": 86.3336, "RA_OF_ASC_NODE": 313.8473, "ARG_OF_PERICENTER": 44.9144, "MEAN_ANOMALY": 315.3582, "EPHEMERIS_TYPE": 0, "CLASSIFICATION_TYPE": "U", "NORAD_CAT_ID": 35929, "ELEMENT_SET_NO": 999, "REV_AT_EPOCH": 87741, "BSTAR": 0.0038329706, "MEAN_MOTION_DOT": 0.00050875, "MEAN_MOTION_DDOT": 0}, "tle": {"line1": "1 35929U 97051UN  25344.17219532  .00050875  00000+0  38330-2 0  9991", "line2": "2 35929  86.3336 313.8473 0018488  44.9144 315.3582 15.02123789877415"}}, "geometry": {"type": "Point", "coordinates": [-52.38852310593783, -55.20132543808632]}}]}